{"type": "FeatureCollection", "features": [ {"type": "Feature", "properties": {"norad_id": 35043, "name": "COSMOS 2251 DEB", "group": "cosmos-2251-debris", "lat": -62.34827040834483, "lon": -108.98749634065084, "alt_km": 577.6405434860017, "timestamp": "2025-12-16T17:51:11.328257+00:00", "meta": {"OBJECT_NAME": "COSMOS 2251 DEB", "OBJECT_ID": "1993-036AHG", "EPOCH": "2025-12-15T19:36:09.229536", "MEAN_MOTION": 14.77121808, "ECCENTRICITY": 0.00962449, "INCLINATION": 73.9502, "RA_OF_ASC_NODE": 39.5099, "ARG_OF_PERICENTER": 248.3461, "MEAN_ANOMALY": 110.7443, "EPHEMERIS_TYPE": 0, "CLASSIFICATION_TYPE": "U", "NORAD_CAT_ID": 35043, "ELEMENT_SET_NO": 999, "REV_AT_EPOCH": 67464, "BSTAR": 0.0021635766, "MEAN_MOTION_DOT": 0.00016517, "MEAN_MOTION_DDOT": 0}, "tle": {"line1": "1 35043U 93036AHG 25349.81677349  .00016517  00000+0  21636-2 0  9993", "line2": "2 35043  73.9502  39.5099 0096244 248.3461 110.7443 14.77121808674647"}}, "geometry": {"type": "Point", "coordinates": [-108.98749634065084, -62.34827040834483]}}, {"type": "Feature", "properties": {"norad_id": 35045, "name": "COSMOS 2251 DEB", "group": "cosmos-2251-debris", "lat": 48.288330106352, "lon": 64.77175894343581, "alt_km": 960.811592251508, "timestamp": "2025-12-16T17:51:11.328267+00:00", "meta": {"OBJECT_NAME": "COSMOS 2251 DEB", "OBJECT_ID": "1993-036AHJ", "EPOCH": "2025-12-15T10:44:56.343840", "MEAN_MOTION": 14.00391051, "ECCENTRICITY": 0.01837483, "INCLINATION": 73.7197, "RA_OF_ASC_NODE": 47.9208, "ARG_OF_PERICENTER": 289.5539, "MEAN_ANOMALY": 68.5833, "EPHEMERIS_TYPE": 0, "CLASSIFICATION_TYPE": "U", "NORAD_CAT_ID": 35045, "ELEMENT_SET_NO": 999, "REV_AT_EPOCH": 84681, "BSTAR": 0.00065789188, "MEAN_MOTION_DOT": 1.1e-05, "MEAN_MOTION_DDOT": 0}, "tle": {"line1": "1 35045U 93036AHJ 25349.44787435  .00001100  00000+0  65789-3 0  9992", "line2": "2 35045  73.7197  47.9208 0183748 289.5539  68.5833 14.00391051846819"}}, "geometry": {"type": "Point", "coordinates": [64.77175894343581, 48.288330106352]}}, {"type": "Feature", "properties": {"norad_id": 35060, "name": "COSMOS 2251 DEB", "group": "cosmos-2251-debris", "lat": -9.267983394765462, "lon": 59.590985666879845, "alt_km": 765.8827447734129, "timestamp": "2025-12-16T17:51:11.328278+00:00", "meta": {"OBJECT_NAME": "COSMOS 2251 DEB", "OBJECT_ID": "1993-036AHP", "EPOCH": "2025-12-12T09:42:56.373696", "MEAN_MOTION": 14.4159863, "ECCENTRICITY": 0.00185395, "INCLINATION": 74.0367, "RA_OF_ASC_NODE": 244.9485, "ARG_OF_PERICENTER": 331.3845, "MEAN_ANOMALY": 28.6291, "EPHEMERIS_TYPE": 0, "CLASSIFICATION_TYPE": "U", "NORAD_CAT_ID": 35060, "ELEMENT_SET_NO": 999, "REV_AT_EPOCH": 87237, "BSTAR": 0.00047553365, "MEAN_MOTION_DOT": 1.524e-05, "MEAN_MOTION_DDOT": 0}, "tle": {"line1": "1 35060U 93036AHP 25346.40481914  .00001524  00000+0  47553-3 0  9994", "line2": "2 35060  74.0367 244.9485 0018539 331.3845  28.6291 14.41598630872378"}}, "geometry": {"type": "Point", "coordinates": [59.590985666879845, -9.267983394765462]}}, {"type": "Feature", "properties": {"norad_id": 35061, "name": "COSMOS 2251 DEB", "group": "cosmos-2251-debris", "lat": 73.9045925658593, "lon": 35.496269455753165, "alt_km": 640.6818514443785, "timestamp": "2025-12-16T17:51:11.328288+00:00", "meta": {"OBJECT_NAME": "COSMOS 2251 DEB", "OBJECT_ID": "1993-036AHQ", "EPOCH": "2025-12-15T13:37:52.272768", "MEAN_MOTION": 14.67853586, "ECCENTRICITY": 0.0039196, "INCLINATION": 74.0455, "RA_OF_ASC_NODE": 300.2612, "ARG_OF_PERICENTER": 50.2977, "MEAN_ANOMALY": 310.1637, "EPHEMERIS_TYPE": 0, "CLASSIFICATION_TYPE": "U", "NORAD_CAT_ID": 35061, "ELEMENT_SET_NO": 999, "REV_AT_EPOCH": 88616, "BSTAR": 0.00055386301, "MEAN_MOTION_DOT": 3.17e-05, "MEAN_MOTION_DDOT": 0}, "tle": {"line1": "1 35061U 93036AHQ 25349.56796612  .00003170  00000+0  55386-3 0  9991", "line2": "2 35061  74.0455 300.2612 0039196  50.2977 310.1637 14.67853586886167"}}, "geometry": {"type": "Point", "coordinates": [35.496269455753165, 73.9045925658593]}}, {"type": "Feature", "properties": {"norad_id": 35062, "name": "COSMOS 2251 DEB", "group": "cosmos-2251-debris", "lat": -40.788722727127265, "lon": -79.67189339573622, "alt_km": 888.8874454193538, "timestamp": "2025-12-16T17:51:11.328298+00:00", "meta": {"OBJECT_NAME": "COSMOS 2251 DEB", "OBJECT_ID": "1993-036AHR", "EPOCH": "2025-12-10T15:42:45.436320", "MEAN_MOTION": 14.22906612, "ECCENTRICITY": 0.01275957, "INCLINATION": 74.0784, "RA_OF_ASC_NODE": 96.9836, "ARG_OF_PERICENTER": 97.3041, "MEAN_ANOMALY": 264.2628, "EPHEMERIS_TYPE": 0, "CLASSIFICATION_TYPE": "U", "NORAD_CAT_ID": 35062, "ELEMENT_SET_NO": 999, "REV_AT_EPOCH": 85469, "BSTAR": 0.0028656551, "MEAN_MOTION_DOT": 6.986e-05, "MEAN_MOTION_DDOT": 0}, "tle": {"line1": "1 35062U 93036AHR 25344.65469255  .00006986  00000+0  28657-2 0  9995", "line2": "2 35062  74.0784  96.9836 0127595  97.3041 264.2628 14.22906612854697"}}, "geometry": {"type": "Point", "coordinates": [-79.67189339573622, -40.788722727127265]}}, {"type": "Feature", "properties": {"norad_id": 35065, "name": "COSMOS 2251 DEB", "group": "cosmos-2251-debris", "lat": -53.41586755604708, "lon": 29.573953625171985, "alt_km": 742.4972085359659, "timestamp": "2025-12-16T17:51:11.328309+00:00", "meta": {"OBJECT_NAME": "COSMOS 2251 DEB", "OBJECT_ID": "1993-036AHU", "EPOCH": "2025-12-15T07:32:45.576096", "MEAN_MOTION": 14.45733893, "ECCENTRICITY": 0.00199052, "INCLINATION": 74.019, "RA_OF_ASC_NODE": 189.5298, "ARG_OF_PERICENTER": 314.3681, "MEAN_ANOMALY": 45.5846, "EPHEMERIS_TYPE": 0, "CLASSIFICATION_TYPE": "U", "NORAD_CAT_ID": 35065, "ELEMENT_SET_NO": 999, "REV_AT_EPOCH": 68388, "BSTAR": 0.00034144119, "MEAN_MOTION_DOT": 1.186e-05, "MEAN_MOTION_DDOT": 0}, "tle": {"line1": "1 35065U 93036AHU 25349.31441639  .00001186  00000+0  34144-3 0  9998", "line2": "2 35065  74.0190 189.5298 0019905 314.3681  45.5846 14.45733893683886"}}, "geometry": {"type": "Point", "coordinates": [29.573953625171985, -53.41586755604708]}}, {"type": "Feature", "properties": {"norad_id": 35071, "name": "COSMOS 2251 DEB", "group": "cosmos-2251-debris", "lat": -27.646226545066913, "lon": -6.1132753945275, "alt_km": 601.6438036847176, "timestamp": "2025-12-16T17:51:11.328319+00:00", "meta": {"OBJECT_NAME": "COSMOS 2251 DEB", "OBJECT_ID": "1993-036AJA", "EPOCH": "2025-12-15T18:34:31.974816", "MEAN_MOTION": 15.0351885, "ECCENTRICITY": 0.00682233, "INCLINATION": 73.9308, "RA_OF_ASC_NODE": 167.1964, "ARG_OF_PERICENTER": 62.71, "MEAN_ANOMALY": 298.1014, "EPHEMERIS_TYPE": 0, "CLASSIFICATION_TYPE": "U", "NORAD_CAT_ID": 35071, "ELEMENT_SET_NO": 999, "REV_AT_EPOCH": 67582, "BSTAR": 0.00048026378, "MEAN_MOTION_DOT": 6.858e-05, "MEAN_MOTION_DDOT": 0}, "tle": {"line1": "1 35071U 93036AJA 25349.77398119  .00006858  00000+0  48026-3 0  9994", "line2": "2 35071  73.9308 167.1964 0068223  62.7100 298.1014 15.03518850675828"}}, "geometry": {"type": "Point", "coordinates": [-6.1132753945275, -27.646226545066913]}}, {"type": "Feature", "properties": {"norad_id": 35073, "name": "COSMOS 2251 DEB", "group": "cosmos-2251-debris", "lat": -72.68562955500599, "lon": -104.58255247516966, "alt_km": 577.377331650232, "timestamp": "2025-12-16T17:51:11.328330+00:00", "meta": {"OBJECT_NAME": "COSMOS 2251 DEB", "OBJECT_ID": "1993-036AJC", "EPOCH": "2025-12-15T05:25:47.046144", "MEAN_MOTION": 15.00831653, "ECCENTRICITY": 0.00109074, "INCLINATION": 73.9997, "RA_OF_ASC_NODE": 325.5063, "ARG_OF_PERICENTER": 67.0121, "MEAN_ANOMALY": 293.2216, "EPHEMERIS_TYPE": 0, "CLASSIFICATION_TYPE": "U", "NORAD_CAT_ID": 35073, "ELEMENT_SET_NO": 999, "REV_AT_EPOCH": 67516, "BSTAR": 0.001951072, "MEAN_MOTION_DOT": 0.00024882, "MEAN_MOTION_DDOT": 0}, "tle": {"line1": "1 35073U 93036AJC 25349.22623896  .00024882  00000+0  19511-2 0  9992", "line2": "2 35073  73.9997 325.5063 0010907  67.0121 293.2216 15.00831653675164"}}, "geometry": {"type": "Point", "coordinates": [-104.58255247516966, -72.68562955500599]}}, {"type": "Feature", "properties": {"norad_id": 35284, "name": "COSMOS 2251 DEB", "group": "cosmos-2251-debris", "lat": -4.1368545543452715, "lon": 78.23694748791658, "alt_km": 777.4845423491033, "timestamp": "2025-12-16T17:51:11.328341+00:00", "meta": {"OBJECT_NAME": "COSMOS 2251 DEB", "OBJECT_ID": "1993-036AJN", "EPOCH": "2025-12-15T17:45:49.988160", "MEAN_MOTION": 14.38321409, "ECCENTRICITY": 0.00169074, "INCLINATION": 74.049, "RA_OF_ASC_NODE": 258.899, "ARG_OF_PERICENTER": 334.8517, "MEAN_ANOMALY": 54.3164, "EPHEMERIS_TYPE": 0, "CLASSIFICATION_TYPE": "U", "NORAD_CAT_ID": 35284, "ELEMENT_SET_NO": 999, "REV_AT_EPOCH": 65569, "BSTAR": 0.00016246159, "MEAN_MOTION_DOT": 4.69e-06, "MEAN_MOTION_DDOT": 0}, "tle": {"line1": "1 35284U 93036AJN 25349.74016190  .00000469  00000+0  16246-3 0  9994", "line2": "2 35284  74.0490 258.8990 0016907 334.8517  54.3164 14.38321409655692"}}, "geometry": {"type": "Point", "coordinates": [78.23694748791658, -4.1368545543452715]}}, {"type": "Feature", "properties": {"norad_id": 35287, "name": "COSMOS 2251 DEB", "group": "cosmos-2251-debris", "lat": -27.054611099269035, "lon": -99.6309694211517, "alt_km": 765.1994637969092, "timestamp": "2025-12-16T17:51:11.328351+00:00", "meta": {"OBJECT_NAME": "COSMOS 2251 DEB", "OBJECT_ID": "1993-036AJR", "EPOCH": "2025-12-15T20:31:36.922080", "MEAN_MOTION": 14.36379169, "ECCENTRICITY": 0.00177084, "INCLINATION": 74.0305, "RA_OF_ASC_NODE": 270.4108, "ARG_OF_PERICENTER": 6.3942, "MEAN_ANOMALY": 52.5497, "EPHEMERIS_TYPE": 0, "CLASSIFICATION_TYPE": "U", "NORAD_CAT_ID": 35287, "ELEMENT_SET_NO": 999, "REV_AT_EPOCH": 86937, "BSTAR": 0.00013289049, "MEAN_MOTION_DOT": 3.63e-06, "MEAN_MOTION_DDOT": 0}, "tle": {"line1": "1 35287U 93036AJR 25349.85528845  .00000363  00000+0  13289-3 0  9991", "line2": "2 35287  74.0305 270.4108 0017708   6.3942  52.5497 14.36379169869379"}}, "geometry": {"type": "Point", "coordinates": [-99.6309694211517, -27.054611099269035]}}]}